GLOBALSTAR M024 [-]     
1 25883U 99043A   23301.44729654 -.00000004  00000+0  21747-2 0  9998
2 25883  52.0017 289.3136 0001081 188.1705 343.0546 11.10156390 48470
GLOBALSTAR M027 [-]     
1 25884U 99043B   23301.38850575 -.00000010  00000+0  20171-2 0  9996
2 25884  52.0248 350.4983 0021642 106.3577 253.9598 11.04365083 75190
GLOBALSTAR M054 [-]     
1 25885U 99043C   23301.53511883 -.00000121  00000+0 -12680-2 0  9990
2 25885  52.0130 217.7596 0003826 217.0983 313.7021 11.39203347 50934
GLOBALSTAR M053 [-]     
1 25886U 99043D   23301.29652189 -.00000046  00000+0  65676-3 0  9998
2 25886  51.9946 132.2590 0004062 133.4088  38.1719 11.27651974 51992
GLOBALSTAR M050 [-]     
1 25908U 99049B   23301.46691178  .00000037  00000+0  14138-2 0  9994
2 25908  51.9999 317.5315 0008788 281.6334 231.1548 12.07423128 75984
GLOBALSTAR M033 [-]     
1 25909U 99049C   23301.48613187 -.00000174  00000+0 -79215-3 0  9993
2 25909  51.9908 230.5931 0011821 122.6434 237.5555 12.20260018462777
GLOBALSTAR M055 [-]     
1 25910U 99049D   23301.28232836 -.00000092  00000+0  20544-4 0  9991
2 25910  52.0011 271.0096 0007088 334.2492  25.8006 12.29389560 94743
